{
  "type": "FeatureCollection",
  "features": [
    {
      "type": "Feature",
      "properties": {
        "norad_id": 30702,
        "name": "FENGYUN 1C DEB",
        "group": "fengyun-1c-debris",
        "lat": 51.038646625557284,
        "lon": -148.72510137646344,
        "alt_km": 910.9109811176913,
        "timestamp": "2025-12-26T22:28:06.062566+00:00",
        "meta_object_name": "FENGYUN 1C DEB",
        "meta_object_id": "1999-025ARL",
        "meta_epoch": "2025-12-25T23:54:42.009984",
        "meta_mean_motion": 14.03630029,
        "meta_eccentricity": 0.0069065,
        "meta_inclination": 98.7691,
        "meta_ra_of_asc_node": 19.3648,
        "meta_arg_of_pericenter": 264.3214,
        "meta_mean_anomaly": 157.7421,
        "meta_ephemeris_type": 0,
        "meta_classification_type": "U",
        "meta_norad_cat_id": 30702,
        "meta_element_set_no": 999,
        "meta_rev_at_epoch": 96348,
        "meta_bstar": 0.00096778,
        "meta_mean_motion_dot": 1.509e-05,
        "meta_mean_motion_ddot": 0,
        "tle_line1": "1 30702U 99025ARL 25359.99631956  .00001509  00000+0  96778-3 0  9993",
        "tle_line2": "2 30702  98.7691  19.3648 0069065 264.3214 157.7421 14.03630029963488"
      },
      "geometry": {
        "type": "Point",
        "coordinates": [
          -148.72510137646344,
          51.038646625557284
        ]
      }
    },
    {
      "type": "Feature",
      "properties": {
        "norad_id": 30703,
        "name": "FENGYUN 1C DEB",
        "group": "fengyun-1c-debris",
        "lat": -43.81883989116054,
        "lon": -4.691981188209085,
        "alt_km": 796.1430242587148,
        "timestamp": "2025-12-26T22:28:06.062577+00:00",
        "meta_object_name": "FENGYUN 1C DEB",
        "meta_object_id": "1999-025ARM",
        "meta_epoch": "2025-12-24T21:45:21.276000",
        "meta_mean_motion": 14.19378421,
        "meta_eccentricity": 0.0117041,
        "meta_inclination": 99.1436,
        "meta_ra_of_asc_node": 344.3229,
        "meta_arg_of_pericenter": 257.422,
        "meta_mean_anomaly": 131.4605,
        "meta_ephemeris_type": 0,
        "meta_classification_type": "U",
        "meta_norad_cat_id": 30703,
        "meta_element_set_no": 999,
        "meta_rev_at_epoch": 96713,
        "meta_bstar": 0.0010103,
        "meta_mean_motion_dot": 2.226e-05,
        "meta_mean_motion_ddot": 0,
        "tle_line1": "1 30703U 99025ARM 25358.90649625  .00002226  00000+0  10103-2 0  9990",
        "tle_line2": "2 30703  99.1436 344.3229 0117041 257.4220 131.4605 14.19378421967136"
      },
      "geometry": {
        "type": "Point",
        "coordinates": [
          -4.691981188209085,
          -43.81883989116054
        ]
      }
    },
    {
      "type": "Feature",
      "properties": {
        "norad_id": 30704,
        "name": "FENGYUN 1C DEB",
        "group": "fengyun-1c-debris",
        "lat": 80.15721982756413,
        "lon": -116.48652084876645,
        "alt_km": 829.508861737193,
        "timestamp": "2025-12-26T22:28:06.062587+00:00",
        "meta_object_name": "FENGYUN 1C DEB",
        "meta_object_id": "1999-025ARN",
        "meta_epoch": "2025-12-25T00:05:47.517216",
        "meta_mean_motion": 14.02064328,
        "meta_eccentricity": 0.00820672,
        "meta_inclination": 98.8739,
        "meta_ra_of_asc_node": 357.4158,
        "meta_arg_of_pericenter": 65.8525,
        "meta_mean_anomaly": 0.8133,
        "meta_ephemeris_type": 0,
        "meta_classification_type": "U",
        "meta_norad_cat_id": 30704,
        "meta_element_set_no": 999,
        "meta_rev_at_epoch": 96283,
        "meta_bstar": 0.00032222476,
        "meta_mean_motion_dot": 4.64e-06,
        "meta_mean_motion_ddot": 0,
        "tle_line1": "1 30704U 99025ARN 25359.00402219  .00000464  00000+0  32222-3 0  9998",
        "tle_line2": "2 30704  98.8739 357.4158 0082067  65.8525   0.8133 14.02064328962830"
      },
      "geometry": {
        "type": "Point",
        "coordinates": [
          -116.48652084876645,
          80.15721982756413
        ]
      }
    },
    {
      "type": "Feature",
      "properties": {
        "norad_id": 30705,
        "name": "FENGYUN 1C DEB",
        "group": "fengyun-1c-debris",
        "lat": 4.929908942619107,
        "lon": -69.74186186423346,
        "alt_km": 917.0615792615363,
        "timestamp": "2025-12-26T22:28:06.062598+00:00",
        "meta_object_name": "FENGYUN 1C DEB",
        "meta_object_id": "1999-025ARP",
        "meta_epoch": "2025-12-25T14:24:28.130976",
        "meta_mean_motion": 13.81391745,
        "meta_eccentricity": 0.0201343,
        "meta_inclination": 102.1796,
        "meta_ra_of_asc_node": 107.4717,
        "meta_arg_of_pericenter": 251.8201,
        "meta_mean_anomaly": 125.1559,
        "meta_ephemeris_type": 0,
        "meta_classification_type": "U",
        "meta_norad_cat_id": 30705,
        "meta_element_set_no": 999,
        "meta_rev_at_epoch": 94187,
        "meta_bstar": 0.0026504,
        "meta_mean_motion_dot": 3.22e-05,
        "meta_mean_motion_ddot": 0,
        "tle_line1": "1 30705U 99025ARP 25359.60032559  .00003220  00000+0  26504-2 0  9999",
        "tle_line2": "2 30705 102.1796 107.4717 0201343 251.8201 125.1559 13.81391745941871"
      },
      "geometry": {
        "type": "Point",
        "coordinates": [
          -69.74186186423346,
          4.929908942619107
        ]
      }
    },
    {
      "type": "Feature",
      "properties": {
        "norad_id": 30706,
        "name": "FENGYUN 1C DEB",
        "group": "fengyun-1c-debris",
        "lat": -70.65561026965278,
        "lon": 48.99023075240685,
        "alt_km": 829.6610231581108,
        "timestamp": "2025-12-26T22:28:06.062608+00:00",
        "meta_object_name": "FENGYUN 1C DEB",
        "meta_object_id": "1999-025ARQ",
        "meta_epoch": "2025-12-26T11:11:17.317824",
        "meta_mean_motion": 14.2647792,
        "meta_eccentricity": 0.00272417,
        "meta_inclination": 99.066,
        "meta_ra_of_asc_node": 255.5565,
        "meta_arg_of_pericenter": 89.22,
        "meta_mean_anomaly": 271.21,
        "meta_ephemeris_type": 0,
        "meta_classification_type": "U",
        "meta_norad_cat_id": 30706,
        "meta_element_set_no": 999,
        "meta_rev_at_epoch": 97823,
        "meta_bstar": 0.00084186914,
        "meta_mean_motion_dot": 1.989e-05,
        "meta_mean_motion_ddot": 0,
        "tle_line1": "1 30706U 99025ARQ 25360.46617266  .00001989  00000+0  84187-3 0  9992",
        "tle_line2": "2 30706  99.0660 255.5565 0027241  89.2200 271.2100 14.26477920978232"
      },
      "geometry": {
        "type": "Point",
        "coordinates": [
          48.99023075240685,
          -70.65561026965278
        ]
      }
    },
    {
      "type": "Feature",
      "properties": {
        "norad_id": 30707,
        "name": "FENGYUN 1C DEB",
        "group": "fengyun-1c-debris",
        "lat": 40.34354564145588,
        "lon": -115.52778513539515,
        "alt_km": 805.9760109591416,
        "timestamp": "2025-12-26T22:28:06.062618+00:00",
        "meta_object_name": "FENGYUN 1C DEB",
        "meta_object_id": "1999-025ARR",
        "meta_epoch": "2025-12-26T15:51:16.005024",
        "meta_mean_motion": 14.26778581,
        "meta_eccentricity": 0.00268878,
        "meta_inclination": 99.4119,
        "meta_ra_of_asc_node": 56.0771,
        "meta_arg_of_pericenter": 29.2783,
        "meta_mean_anomaly": 134.6359,
        "meta_ephemeris_type": 0,
        "meta_classification_type": "U",
        "meta_norad_cat_id": 30707,
        "meta_element_set_no": 999,
        "meta_rev_at_epoch": 97001,
        "meta_bstar": 0.0014539313,
        "meta_mean_motion_dot": 3.487e-05,
        "meta_mean_motion_ddot": 0,
        "tle_line1": "1 30707U 99025ARR 25360.66060191  .00003487  00000+0  14539-2 0  9992",
        "tle_line2": "2 30707  99.4119  56.0771 0026887  29.2783 134.6359 14.26778581970017"
      },
      "geometry": {
        "type": "Point",
        "coordinates": [
          -115.52778513539515,
          40.34354564145588
        ]
      }
    },
    {
      "type": "Feature",
      "properties": {
        "norad_id": 30708,
        "name": "FENGYUN 1C DEB",
        "group": "fengyun-1c-debris",
        "lat": 1.4944486136836481,
        "lon": -165.6339849886727,
        "alt_km": 848.811139270817,
        "timestamp": "2025-12-26T22:28:06.062628+00:00",
        "meta_object_name": "FENGYUN 1C DEB",
        "meta_object_id": "1999-025ARS",
        "meta_epoch": "2025-12-26T12:09:10.065600",
        "meta_mean_motion": 14.12186932,
        "meta_eccentricity": 0.00087509,
        "meta_inclination": 98.6899,
        "meta_ra_of_asc_node": 13.7208,
        "meta_arg_of_pericenter": 155.8504,
        "meta_mean_anomaly": 358.5795,
        "meta_ephemeris_type": 0,
        "meta_classification_type": "U",
        "meta_norad_cat_id": 30708,
        "meta_element_set_no": 999,
        "meta_rev_at_epoch": 97030,
        "meta_bstar": 0.0001677316,
        "meta_mean_motion_dot": 2.66e-06,
        "meta_mean_motion_ddot": 0,
        "tle_line1": "1 30708U 99025ARS 25360.50636650  .00000266  00000+0  16773-3 0  9990",
        "tle_line2": "2 30708  98.6899  13.7208 0008750 155.8504 358.5795 14.12186932970306"
      },
      "geometry": {
        "type": "Point",
        "coordinates": [
          -165.6339849886727,
          1.4944486136836481
        ]
      }
    }
  ]
}